[{"OBJECT_NAME":"STARLINK-1746","OBJECT_ID":"2020-070BJ","EPOCH":"2026-03-10T00:00:02.999808","MEAN_MOTION":15.72577071,"ECCENTRICITY":0.00019759,"INCLINATION":53.0443,"RA_OF_ASC_NODE":113.4625,"ARG_OF_PERICENTER":101.3284,"MEAN_ANOMALY":240.7247,"EPHEMERIS_TYPE":0,"CLASSIFICATION_TYPE":"U","NORAD_CAT_ID":46588,"ELEMENT_SET_NO":999,"REV_AT_EPOCH":596,"BSTAR":0.001329381,"MEAN_MOTION_DOT":0.00185163,"MEAN_MOTION_DDOT":0},{"OBJECT_NAME":"STARLINK-36569","OBJECT_ID":"2026-014X","EPOCH":"2026-03-09T16:14:37.338720","MEAN_MOTION":15.75200917,"ECCENTRICITY":0.00015293,"INCLINATION":97.2846,"RA_OF_ASC_NODE":313.642,"ARG_OF_PERICENTER":21.0188,"MEAN_ANOMALY":339.114,"EPHEMERIS_TYPE":0,"CLASSIFICATION_TYPE":"U","NORAD_CAT_ID":67553,"ELEMENT_SET_NO":999,"REV_AT_EPOCH":856,"BSTAR":0.00098238862,"MEAN_MOTION_DOT":0.00149056,"MEAN_MOTION_DDOT":0}]
